[{"OBJECT_NAME":"STARLINK-31571","OBJECT_ID":"2024-060Q","EPOCH":"2026-03-09T13:53:05.051616","MEAN_MOTION":15.27572637,"ECCENTRICITY":7.23e-5,"INCLINATION":42.9986,"RA_OF_ASC_NODE":260.6673,"ARG_OF_PERICENTER":274.3865,"MEAN_ANOMALY":85.6904,"EPHEMERIS_TYPE":0,"CLASSIFICATION_TYPE":"U","NORAD_CAT_ID":59362,"ELEMENT_SET_NO":999,"REV_AT_EPOCH":11004,"BSTAR":1.3427e-5,"MEAN_MOTION_DOT":1.08e-6,"MEAN_MOTION_DDOT":0},{"OBJECT_NAME":"CZ-6A DEB","OBJECT_ID":"2024-140PU","EPOCH":"2026-03-09T02:24:11.901600","MEAN_MOTION":14.96529453,"ECCENTRICITY":0.01989751,"INCLINATION":89.1479,"RA_OF_ASC_NODE":289.7131,"ARG_OF_PERICENTER":96.8489,"MEAN_ANOMALY":265.5425,"EPHEMERIS_TYPE":0,"CLASSIFICATION_TYPE":"U","NORAD_CAT_ID":61126,"ELEMENT_SET_NO":999,"REV_AT_EPOCH":8404,"BSTAR":0.00070354239,"MEAN_MOTION_DOT":0.00012037,"MEAN_MOTION_DDOT":0}]
